{
  "norad_id": 63304,
  "name": "KINEIS-4B",
  "history": [
    {
      "epoch": "2026-03-27T07:43:28.329888Z",
      "apogee_km": 656.5291558189401,
      "perigee_km": 650.7167030612654,
      "latitude_deg": -1.0171030051298528e-05,
      "longitude_deg": -88.17956489902676,
      "height_km": 659.0852182273253,
      "semi_major_axis_km": 7031.7599294401025,
      "eccentricity": 0.0004133,
      "inclination_deg": 97.9812,
      "raan_deg": 212.4468,
      "arg_perigee_deg": 147.7098,
      "mean_anomaly_deg": 212.4363,
      "mean_motion_rev_day": 14.72335248
    },
    {
      "epoch": "2026-03-31T14:28:50.966688Z",
      "apogee_km": 657.0166483165649,
      "perigee_km": 650.2577069770114,
      "latitude_deg": -5.981397751897926e-05,
      "longitude_deg": 170.4582724338444,
      "height_km": 659.2123801939146,
      "semi_major_axis_km": 7031.774177646788,
      "eccentricity": 0.0004806,
      "inclination_deg": 97.9718,
      "raan_deg": 216.649,
      "arg_perigee_deg": 139.5343,
      "mean_anomaly_deg": 220.6222,
      "mean_motion_rev_day": 14.72330773
    },
    {
      "epoch": "2026-03-31T14:28:50.967552Z",
      "apogee_km": 657.0166483165649,
      "perigee_km": 650.2577069770114,
      "latitude_deg": -5.9818217284046653e-05,
      "longitude_deg": 170.45826882457968,
      "height_km": 659.2123801946271,
      "semi_major_axis_km": 7031.774177646788,
      "eccentricity": 0.0004806,
      "inclination_deg": 97.9718,
      "raan_deg": 216.649,
      "arg_perigee_deg": 139.5343,
      "mean_anomaly_deg": 220.6222,
      "mean_motion_rev_day": 14.72330773
    },
    {
      "epoch": "2026-04-03T22:24:09.144288Z",
      "apogee_km": 657.235711554702,
      "perigee_km": 650.0379878421518,
      "latitude_deg": -3.2344581147718436e-05,
      "longitude_deg": 51.61446277766519,
      "height_km": 659.0727924055936,
      "semi_major_axis_km": 7031.773849698427,
      "eccentricity": 0.0005118,
      "inclination_deg": 97.9678,
      "raan_deg": 219.9132,
      "arg_perigee_deg": 132.5359,
      "mean_anomaly_deg": 227.6281,
      "mean_motion_rev_day": 14.72330876
    },
    {
      "epoch": "2026-04-04T21:14:14.252352Z",
      "apogee_km": 657.3566062435593,
      "perigee_km": 649.9155839543255,
      "latitude_deg": 9.012971528039561e-07,
      "longitude_deg": 69.08808375188012,
      "height_km": 659.1199892057654,
      "semi_major_axis_km": 7031.773095098942,
      "eccentricity": 0.0005291,
      "inclination_deg": 97.9643,
      "raan_deg": 220.8459,
      "arg_perigee_deg": 131.8282,
      "mean_anomaly_deg": 228.3378,
      "mean_motion_rev_day": 14.72331113
    },
    {
      "epoch": "2026-04-05T13:32:52.222848Z",
      "apogee_km": 657.3762045300718,
      "perigee_km": 649.8986156223964,
      "latitude_deg": -6.443807330452557e-06,
      "longitude_deg": -175.5747771245715,
      "height_km": 659.0566931267992,
      "semi_major_axis_km": 7031.774410076234,
      "eccentricity": 0.0005317,
      "inclination_deg": 97.9636,
      "raan_deg": 221.5111,
      "arg_perigee_deg": 130.272,
      "mean_anomaly_deg": 229.8953,
      "mean_motion_rev_day": 14.723307
    },
    {
      "epoch": "2026-04-06T07:29:22.073856Z",
      "apogee_km": 657.4777380818596,
      "perigee_km": 649.8118302164157,
      "latitude_deg": 3.2853181574659244e-05,
      "longitude_deg": -84.70279971316175,
      "height_km": 659.0587622088369,
      "semi_major_axis_km": 7031.781784149138,
      "eccentricity": 0.00054509,
      "inclination_deg": 97.9613,
      "raan_deg": 222.2443,
      "arg_perigee_deg": 128.9937,
      "mean_anomaly_deg": 231.1757,
      "mean_motion_rev_day": 14.72328384
    },
    {
      "epoch": "2026-04-07T06:19:27.369408Z",
      "apogee_km": 657.4829696783536,
      "perigee_km": 649.8108715139479,
      "latitude_deg": 2.3541509080402823e-05,
      "longitude_deg": -67.2304577877525,
      "height_km": 658.9628240082446,
      "semi_major_axis_km": 7031.783920596151,
      "eccentricity": 0.00054553,
      "inclination_deg": 97.9607,
      "raan_deg": 223.1765,
      "arg_perigee_deg": 127.1011,
      "mean_anomaly_deg": 233.0696,
      "mean_motion_rev_day": 14.72327713
    }
  ]
}